LYNK TOWER 6            
1 59123U 24043AB  26068.89488777  .00011440  00000+0  40142-3 0  9996
2 59123  97.5426 204.1954 0009749 232.0253 128.0107 15.29548678111845
STARLINK-35560          
1 66059U 25235B   26068.89985248  .00032614  00000+0  11082-2 0  9997
2 66059  53.1581 244.2952 0000870  90.4613 269.6487 15.30206170 22952
