[{"OBJECT_NAME":"LYNK TOWER 6","OBJECT_ID":"2024-043AB","EPOCH":"2026-03-09T21:28:38.303328","MEAN_MOTION":15.29548678,"ECCENTRICITY":0.00097492,"INCLINATION":97.5426,"RA_OF_ASC_NODE":204.1954,"ARG_OF_PERICENTER":232.0253,"MEAN_ANOMALY":128.0107,"EPHEMERIS_TYPE":0,"CLASSIFICATION_TYPE":"U","NORAD_CAT_ID":59123,"ELEMENT_SET_NO":999,"REV_AT_EPOCH":11184,"BSTAR":0.00040142146,"MEAN_MOTION_DOT":0.0001144,"MEAN_MOTION_DDOT":0},{"OBJECT_NAME":"STARLINK-35560","OBJECT_ID":"2025-235B","EPOCH":"2026-03-09T21:35:47.255136","MEAN_MOTION":15.3020617,"ECCENTRICITY":8.702e-5,"INCLINATION":53.1581,"RA_OF_ASC_NODE":244.2952,"ARG_OF_PERICENTER":90.4613,"MEAN_ANOMALY":269.6487,"EPHEMERIS_TYPE":0,"CLASSIFICATION_TYPE":"U","NORAD_CAT_ID":66059,"ELEMENT_SET_NO":999,"REV_AT_EPOCH":2295,"BSTAR":0.0011082328,"MEAN_MOTION_DOT":0.00032614,"MEAN_MOTION_DDOT":0}]
